satname,norad_id,inclination_deg,eccentricity,mean_motion_rev_per_day,perigee_km,apogee_km,l1,l2
STARLINK-1008,44714,53.0531,0.0001223,15.06431214,546.268934746965,547.962851604636,1 44714U 19074B   25252.24611936  .00004863  00000+0  34486-3 0  9997,2 44714  53.0531 281.1526 0001223  84.9212 275.1916 15.06431214321406
STARLINK-1010,44716,53.0521,0.0011166,15.75583336,335.4669532016569,350.47653324702605,1 44716U 19074D   25252.21930914  .00098071  00000+0  62476-3 0  9990,2 44716  53.0521 236.1899 0011166  14.3283 345.8050 15.75583336322013
STARLINK-1011,44717,53.0517,0.0005588,15.64675917,370.3977885872655,377.94416798379825,1 44717U 19074E   25252.00005787  .00155620  00000+0  15504-2 0  9992,2 44717  53.0517 290.2004 0005588   1.4834  75.2529 15.64675917  5791
STARLINK-1012,44718,53.0533,0.0001251,15.06406899,546.3240551181734,548.0567720370509,1 44718U 19074F   25252.29039684  .00001438  00000+0  11541-3 0  9992,2 44718  53.0533 280.9558 0001251  84.9383 275.1749 15.06406899321409
STARLINK-1015,44721,53.0459,0.0003735,15.9266969,292.32311880056204,297.3078142930726,1 44721U 19074J   25252.25004630  .00237639  32431-4  68425-3 0  9990,2 44721  53.0459 225.2528 0003735  10.2751 156.3712 15.92669690  6055
STARLINK-1017,44723,53.0524,0.0002747,15.1043643,532.9690370200115,536.7670419887154,1 44723U 19074L   25252.27639973  .00024323  00000+0  14750-2 0  9995,2 44723  53.0524 279.8290 0002747 329.4082  30.6748 15.10436430321423
STARLINK-1019,44724,53.055,0.0001306,15.06397322,546.3153140411414,548.1242172283264,1 44724U 19074M   25252.28670946  .00000790  00000+0  71937-4 0  9996,2 44724  53.0550 280.9703 0001306  90.3198 269.7940 15.06397322321405
STARLINK-1020,44725,53.0554,0.0001573,15.06395225,546.1368330340028,548.3155522944153,1 44725U 19074N   25252.29222334  .00003704  00000+0  26746-3 0  9997,2 44725  53.0554 300.9455 0001573  89.0373 271.0796 15.06395225321127
STARLINK-1021,44726,53.0448,0.000387,15.86916442,308.3452630533311,313.5226039558638,1 44726U 19074P   25252.25004630  .00267602  00000+0  98903-3 0  9994,2 44726  53.0448 230.6928 0003870 351.7983  88.6161 15.86916442  5947
STARLINK-1029,44734,53.0522,0.0008965,15.82032823,318.68355419486943,330.701727741126,1 44734U 19074X   25252.25004630  .00201191  00000+0  94480-3 0  9990,2 44734  53.0522 154.0759 0008965  76.1423  99.4210 15.82032823  6031
STARLINK-1030,44735,53.0393,0.0002252,16.06641031,254.57985287035626,257.567901449429,1 44735U 19074Y   25252.18191493  .00557780  16281-3  71793-3 0  9999,2 44735  53.0393 248.0282 0002252 114.4844 245.6423 16.06641031321854
STARLINK-1031,44736,53.0544,0.0006374,15.35990037,453.6240506107424,462.33873433746885,1 44736U 19074Z   25252.27419893  .00071497  00000+0  20019-2 0  9995,2 44736  53.0544 283.2297 0006374 328.9856  31.0769 15.35990037321386
STARLINK-1036,44741,53.055,0.0001263,15.06401401,546.3325930978326,548.08193505894,1 44741U 19074AE  25251.85729627 -.00000552  00000+0 -18136-4 0  9998,2 44741  53.0550 302.9005 0001263  93.1697 266.9437 15.06401401321067
STARLINK-1039,44744,53.0541,0.0003837,15.08930155,536.8135499415321,542.1221198918474,1 44744U 19074AH  25252.20659064  .00022212  00000+0  14056-2 0  9998,2 44744  53.0541 320.8753 0003837 307.7380  52.3262 15.08930155320844
STARLINK-1042,44747,53.0471,0.0002842,15.40500289,442.6927237351956,446.5707854953189,1 44747U 19074AL  25252.27681677  .00014512  00000+0  36149-3 0  9995,2 44747  53.0471 238.9470 0002842   2.2157 357.8859 15.40500289322022
STARLINK-1043,44748,53.0557,0.0001136,15.06377815,546.492825282151,548.0662799229021,1 44748U 19074AM  25252.22774311 -.00005494  00000+0 -35045-3 0  9994,2 44748  53.0557 321.2388 0001136  96.7366 263.3752 15.06377815320847
STARLINK-1046,44751,53.0544,0.0001324,15.06401297,546.2906672001654,548.124498445698,1 44751U 19074AQ  25251.91073136 -.00000581  00000+0 -20089-4 0  9995,2 44751  53.0544 322.6624 0001324  81.0067 279.1072 15.06401297320795
STARLINK-1047,44752,53.072,0.0004472,15.27735028,479.5168108468961,485.65304053723503,1 44752U 19074AR  25252.25302631  .00008122  00000+0  30819-3 0  9997,2 44752  53.0720 270.5522 0004472  26.9246 333.1984 15.27735028321568
STARLINK-1048,44753,53.0548,0.0001175,15.0639822,546.403284290709,548.0307424838556,1 44753U 19074AS  25252.26827796  .00000683  00000+0  64709-4 0  9993,2 44753  53.0548 281.0538 0001175  88.1281 271.9842 15.06398220321408
STARLINK-1053,44758,53.0417,0.0003118,15.54270535,402.15916765790917,406.38867910973113,1 44758U 19074AX  25252.23055249  .00036176  00000+0  54900-3 0  9998,2 44758  53.0417 258.4308 0003118  43.0779 317.0474 15.54270535321732
STARLINK-1054,44759,53.0467,0.0010511,15.61415796,376.45936461489055,390.67381790443596,1 44759U 19074AY  25252.25004630  .00119288  00000+0  13550-2 0  9990,2 44759  53.0467 288.7755 0010511 327.5246 184.0601 15.61415796  5937
STARLINK-1056,44761,53.0441,0.0011547,15.73029577,342.47483945243675,358.01336276734037,1 44761U 19074BA  25252.26892879  .00136532  00000+0  96491-3 0  9991,2 44761  53.0441 279.1251 0011547 353.8031   6.2842 15.73029577321441
STARLINK-1057,44762,53.044,0.000477,15.88774695,302.5289641505833,308.9053610216906,1 44762U 19074BB  25252.25004630  .00259599  00000+0  87588-3 0  9997,2 44762  53.0440 251.5560 0004770 355.4874  75.1878 15.88774695  6067
STARLINK-1060,44765,53.0543,4.61e-05,15.17334635,513.5821745148642,514.2176203168074,1 44765U 19074BE  25252.25004630  .00051919  00000+0  25682-2 0  9992,2 44765  53.0543 300.7811 0000461  77.4540 276.6481 15.17334635  5845
STARLINK-1063,44768,53.0556,0.000154,15.06395025,546.1602996126421,548.2933116647782,1 44768U 19074BH  25251.89968659  .00001035  00000+0  88363-4 0  9995,2 44768  53.0556 322.7077 0001540  95.3401 264.7764 15.06395025320800
STARLINK-1067,44771,53.0554,0.000135,15.06412104,546.2395441227109,548.1093782172265,1 44771U 19074BL  25252.22037681  .00015705  00000+0  10705-2 0  9991,2 44771  53.0554 321.2701 0001350  66.9873 293.1258 15.06412104320842
STARLINK-1068,44772,53.0537,0.0001279,15.06399336,546.3278406625468,548.0993453442379,1 44772U 19074BM  25251.87940602  .00004059  00000+0  29123-3 0  9993,2 44772  53.0537 302.8009 0001279  80.5461 279.5673 15.06399336321060
STARLINK-1098,44917,53.0405,0.0007616,16.17063414,222.50617403561864,232.56793675679728,1 44917U 20001D   25252.83609803  .01049645  77526-3  66851-3 0  9999,2 44917  53.0405  20.1564 0007616 341.2388  18.8366 16.17063414313407
STARLINK-1104,44922,53.0407,0.0007,16.21444932,211.0160153771876,220.2472914919963,1 44922U 20001J   25252.86949074  .01562759  11864-4  69997-3 0  9999,2 44922  53.0407  20.9017 0007000 333.6169  26.4512 16.21444932313394
STARLINK-1112,44925,53.0533,0.0005438,15.44971685,427.7582118967093,435.16433097672416,1 44925U 20001M   25251.75030035  .00025105  00000+0  53156-3 0  9990,2 44925  53.0533  57.1033 0005438 121.3550 238.7988 15.44971685312798
STARLINK-1114,44927,53.0563,0.0001353,15.06395781,546.2874871864024,548.1614900052155,1 44927U 20001P   25251.85176963 -.00000048  00000+0  15661-4 0  9994,2 44927  53.0563  82.9221 0001353  89.5516 270.5628 15.06395781312449
STARLINK-1123,44930,53.0554,0.0001311,15.06400545,546.3019746153122,548.1178005692382,1 44930U 20001S   25251.80017234 -.00000655  00000+0 -25079-4 0  9997,2 44930  53.0554  83.1532 0001311  93.6942 266.4197 15.06400545312433
STARLINK-1144,44933,53.0499,0.000949,15.47955508,416.25371536370403,429.1617186365702,1 44933U 20001V   25252.10180079  .00087772  00000+0  16419-2 0  9991,2 44933  53.0499  34.2486 0009490 244.0482 115.9548 15.47955508314446
STARLINK-1071,44934,53.0379,0.0006216,16.11397629,238.8962926891909,247.1277051246334,1 44934U 20001W   25252.50683279  .00734406  31046-3  69308-3 0  9993,2 44934  53.0379 359.8754 0006216 351.4105   8.6821 16.11397629313656
STARLINK-1091,44940,53.0442,0.0003431,15.71375924,352.653598981321,357.2738526993935,1 44940U 20001AC  25252.25004630  .00252751  00000+0  18917-2 0  9999,2 44940  53.0442  21.2817 0003431 223.3226 127.4432 15.71375924  5735
STARLINK-1094,44941,53.0545,0.0001357,15.06407158,546.2498529637833,548.1293866083925,1 44941U 20001AD  25251.74672897  .00005192  00000+0  36715-3 0  9991,2 44941  53.0545  63.3918 0001357  85.1357 274.9787 15.06407158312705
STARLINK-1096,44942,52.995,0.0003158,15.73628798,346.41164571616264,350.66021233813626,1 44942U 20001AE  25252.28001723  .00083061  00000+0  57943-3 0  9993,2 44942  52.9950 207.9529 0003158  90.2963 269.8416 15.73628798315758
STARLINK-1122,44949,53.0543,0.0001179,15.0640354,546.3842110535616,548.0172056851943,1 44949U 20001AM  25251.76883028  .00000712  00000+0  66647-4 0  9992,2 44949  53.0543  63.2901 0001179  94.1834 265.9290 15.06403540312704
STARLINK-1066,44954,53.0438,0.0004886,16.00281659,270.388028456161,276.88814306996846,1 44954U 20001AS  25252.25004630  .00509137  12439-3  95873-3 0  9997,2 44954  53.0438 347.3676 0004886 355.9459 105.5295 16.00281659  6015
STARLINK-1080,44961,53.0546,0.0001033,15.0639753,546.5037388548399,547.9345174309137,1 44961U 20001AZ  25251.70065081  .00004348  00000+0  31063-3 0  9993,2 44961  53.0546  43.6006 0001033  87.6530 272.4577 15.06397530312980
STARLINK-1090,44968,53.0556,0.0001116,15.06385023,546.4845866446976,548.0303346883184,1 44968U 20001BG  25251.70434472  .00000494  00000+0  52086-4 0  9991,2 44968  53.0556  43.5852 0001116  92.7187 267.3930 15.06385023312983
STARLINK-1107,44972,53.0149,0.0006906,15.53562708,401.64852502390477,411.019236204208,1 44972U 20001BL  25252.26920929  .00068991  00000+0  10624-2 0  9991,2 44972  53.0149 335.6485 0006906  10.4857 349.6295 15.53562708313984
STARLINK-1115,44973,53.0143,1.09e-05,16.28774659,195.76317395305432,195.9064865389537,1 44973U 20001BM  25252.65863031  .04256512  12056-4  10218-2 0  9995,2 44973  53.0143 283.3211 0000109  82.4270 277.6783 16.28774659314742
